{"type": "FeatureCollection", "features": [ {"type": "Feature", "properties": {"norad_id": 66458, "name": "STARLINK-35684", "group": "last-30-days", "lat": -41.791323676041436, "lon": 19.092496650411945, "alt_km": 390.0068896433886, "timestamp": "2025-12-03T10:52:56.221679+00:00", "meta": {"OBJECT_NAME": "STARLINK-35684", "OBJECT_ID": "2025-262C", "EPOCH": "2025-12-03T04:00:01.998720", "MEAN_MOTION": 15.6126075, "ECCENTRICITY": 0.0001715, "INCLINATION": 43, "RA_OF_ASC_NODE": 127.217, "ARG_OF_PERICENTER": 276.5397, "MEAN_ANOMALY": 168.413, "EPHEMERIS_TYPE": 0, "CLASSIFICATION_TYPE": "U", "NORAD_CAT_ID": 66458, "ELEMENT_SET_NO": 999, "REV_AT_EPOCH": 410, "BSTAR": -0.028004, "MEAN_MOTION_DOT": -0.02168529, "MEAN_MOTION_DDOT": 0}, "tle": {"line1": "1 66458U 25262C   25337.16668980 -.02168529  00000+0 -28004-1 0  9999", "line2": "2 66458  43.0000 127.2170 0001715 276.5397 168.4130 15.61260750  4102"}}, "geometry": {"type": "Point", "coordinates": [19.092496650411945, -41.791323676041436]}}, {"type": "Feature", "properties": {"norad_id": 66459, "name": "STARLINK-35449", "group": "last-30-days", "lat": -42.417183081422, "lon": 24.17572775846874, "alt_km": 390.11670386023434, "timestamp": "2025-12-03T10:52:56.221689+00:00", "meta": {"OBJECT_NAME": "STARLINK-35449", "OBJECT_ID": "2025-262D", "EPOCH": "2025-12-03T04:00:01.998720", "MEAN_MOTION": 15.61263489, "ECCENTRICITY": 0.0001596, "INCLINATION": 42.9996, "RA_OF_ASC_NODE": 127.207, "ARG_OF_PERICENTER": 280.9556, "MEAN_ANOMALY": 167.8314, "EPHEMERIS_TYPE": 0, "CLASSIFICATION_TYPE": "U", "NORAD_CAT_ID": 66459, "ELEMENT_SET_NO": 999, "REV_AT_EPOCH": 410, "BSTAR": -0.028064, "MEAN_MOTION_DOT": -0.02172727, "MEAN_MOTION_DDOT": 0}, "tle": {"line1": "1 66459U 25262D   25337.16668980 -.02172727  00000+0 -28064-1 0  9991", "line2": "2 66459  42.9996 127.2070 0001596 280.9556 167.8314 15.61263489  4106"}}, "geometry": {"type": "Point", "coordinates": [24.17572775846874, -42.417183081422]}}, {"type": "Feature", "properties": {"norad_id": 66460, "name": "STARLINK-35424", "group": "last-30-days", "lat": -42.64512628014441, "lon": 26.75735406115313, "alt_km": 390.20090503390657, "timestamp": "2025-12-03T10:52:56.221699+00:00", "meta": {"OBJECT_NAME": "STARLINK-35424", "OBJECT_ID": "2025-262E", "EPOCH": "2025-12-03T04:00:01.998720", "MEAN_MOTION": 15.61258339, "ECCENTRICITY": 0.000144, "INCLINATION": 42.9995, "RA_OF_ASC_NODE": 127.2021, "ARG_OF_PERICENTER": 278.4379, "MEAN_ANOMALY": 172.2732, "EPHEMERIS_TYPE": 0, "CLASSIFICATION_TYPE": "U", "NORAD_CAT_ID": 66460, "ELEMENT_SET_NO": 999, "REV_AT_EPOCH": 410, "BSTAR": -0.028009, "MEAN_MOTION_DOT": -0.0216845, "MEAN_MOTION_DDOT": 0}, "tle": {"line1": "1 66460U 25262E   25337.16668980 -.02168450  00000+0 -28009-1 0  9990", "line2": "2 66460  42.9995 127.2021 0001440 278.4379 172.2732 15.61258339  4108"}}, "geometry": {"type": "Point", "coordinates": [26.75735406115313, -42.64512628014441]}}, {"type": "Feature", "properties": {"norad_id": 66461, "name": "STARLINK-35132", "group": "last-30-days", "lat": -42.81386863276203, "lon": 29.34007870812753, "alt_km": 390.1628818725676, "timestamp": "2025-12-03T10:52:56.221714+00:00", "meta": {"OBJECT_NAME": "STARLINK-35132", "OBJECT_ID": "2025-262F", "EPOCH": "2025-12-03T04:00:01.998720", "MEAN_MOTION": 15.61254809, "ECCENTRICITY": 0.0001498, "INCLINATION": 42.9996, "RA_OF_ASC_NODE": 127.1971, "ARG_OF_PERICENTER": 280.8679, "MEAN_ANOMALY": 171.7547, "EPHEMERIS_TYPE": 0, "CLASSIFICATION_TYPE": "U", "NORAD_CAT_ID": 66461, "ELEMENT_SET_NO": 999, "REV_AT_EPOCH": 410, "BSTAR": -0.027852, "MEAN_MOTION_DOT": -0.02157442, "MEAN_MOTION_DDOT": 0}, "tle": {"line1": "1 66461U 25262F   25337.16668980 -.02157442  00000+0 -27852-1 0  9995", "line2": "2 66461  42.9996 127.1971 0001498 280.8679 171.7547 15.61254809  4102"}}, "geometry": {"type": "Point", "coordinates": [29.34007870812753, -42.81386863276203]}}, {"type": "Feature", "properties": {"norad_id": 66462, "name": "STARLINK-35499", "group": "last-30-days", "lat": -42.92458188988822, "lon": 31.95103835812736, "alt_km": 390.1790767702896, "timestamp": "2025-12-03T10:52:56.221724+00:00", "meta": {"OBJECT_NAME": "STARLINK-35499", "OBJECT_ID": "2025-262G", "EPOCH": "2025-12-03T04:00:01.998720", "MEAN_MOTION": 15.61262885, "ECCENTRICITY": 0.0001452, "INCLINATION": 42.9997, "RA_OF_ASC_NODE": 127.1919, "ARG_OF_PERICENTER": 278.1966, "MEAN_ANOMALY": 176.3452, "EPHEMERIS_TYPE": 0, "CLASSIFICATION_TYPE": "U", "NORAD_CAT_ID": 66462, "ELEMENT_SET_NO": 999, "REV_AT_EPOCH": 410, "BSTAR": -0.028078, "MEAN_MOTION_DOT": -0.02173524, "MEAN_MOTION_DDOT": 0}, "tle": {"line1": "1 66462U 25262G   25337.16668980 -.02173524  00000+0 -28078-1 0  9996", "line2": "2 66462  42.9997 127.1919 0001452 278.1966 176.3452 15.61262885  4104"}}, "geometry": {"type": "Point", "coordinates": [31.95103835812736, -42.92458188988822]}}, {"type": "Feature", "properties": {"norad_id": 66463, "name": "STARLINK-35463", "group": "last-30-days", "lat": -42.966831035242, "lon": 37.16492596439023, "alt_km": 390.00966691919257, "timestamp": "2025-12-03T10:52:56.221737+00:00", "meta": {"OBJECT_NAME": "STARLINK-35463", "OBJECT_ID": "2025-262H", "EPOCH": "2025-12-03T04:00:01.998720", "MEAN_MOTION": 15.61255939, "ECCENTRICITY": 0.0001677, "INCLINATION": 42.9998, "RA_OF_ASC_NODE": 127.1827, "ARG_OF_PERICENTER": 278.5871, "MEAN_ANOMALY": 179.7857, "EPHEMERIS_TYPE": 0, "CLASSIFICATION_TYPE": "U", "NORAD_CAT_ID": 66463, "ELEMENT_SET_NO": 999, "REV_AT_EPOCH": 410, "BSTAR": -0.027899, "MEAN_MOTION_DOT": -0.021609, "MEAN_MOTION_DDOT": 0}, "tle": {"line1": "1 66463U 25262H   25337.16668980 -.02160900  00000+0 -27899-1 0  9991", "line2": "2 66463  42.9998 127.1827 0001677 278.5871 179.7857 15.61255939  4100"}}, "geometry": {"type": "Point", "coordinates": [37.16492596439023, -42.966831035242]}}, {"type": "Feature", "properties": {"norad_id": 66464, "name": "STARLINK-35435", "group": "last-30-days", "lat": -42.975315619798174, "lon": 34.55256440742086, "alt_km": 390.1435951460144, "timestamp": "2025-12-03T10:52:56.221748+00:00", "meta": {"OBJECT_NAME": "STARLINK-35435", "OBJECT_ID": "2025-262J", "EPOCH": "2025-12-03T04:00:01.998720", "MEAN_MOTION": 15.61253313, "ECCENTRICITY": 0.0001564, "INCLINATION": 42.9997, "RA_OF_ASC_NODE": 127.187, "ARG_OF_PERICENTER": 285.5245, "MEAN_ANOMALY": 170.9365, "EPHEMERIS_TYPE": 0, "CLASSIFICATION_TYPE": "U", "NORAD_CAT_ID": 66464, "ELEMENT_SET_NO": 999, "REV_AT_EPOCH": 410, "BSTAR": -0.027895, "MEAN_MOTION_DOT": -0.02160309, "MEAN_MOTION_DDOT": 0}, "tle": {"line1": "1 66464U 25262J   25337.16668980 -.02160309  00000+0 -27895-1 0  9991", "line2": "2 66464  42.9997 127.1870 0001564 285.5245 170.9365 15.61253313  4107"}}, "geometry": {"type": "Point", "coordinates": [34.55256440742086, -42.975315619798174]}}, {"type": "Feature", "properties": {"norad_id": 66465, "name": "STARLINK-35448", "group": "last-30-days", "lat": -42.77090939202136, "lon": 42.378788857544805, "alt_km": 390.0990957125259, "timestamp": "2025-12-03T10:52:56.221758+00:00", "meta": {"OBJECT_NAME": "STARLINK-35448", "OBJECT_ID": "2025-262K", "EPOCH": "2025-12-03T04:00:01.998720", "MEAN_MOTION": 15.61258573, "ECCENTRICITY": 0.0001516, "INCLINATION": 42.9997, "RA_OF_ASC_NODE": 127.1732, "ARG_OF_PERICENTER": 275.8813, "MEAN_ANOMALY": 186.326, "EPHEMERIS_TYPE": 0, "CLASSIFICATION_TYPE": "U", "NORAD_CAT_ID": 66465, "ELEMENT_SET_NO": 999, "REV_AT_EPOCH": 410, "BSTAR": -0.027949, "MEAN_MOTION_DOT": -0.02164389, "MEAN_MOTION_DDOT": 0}, "tle": {"line1": "1 66465U 25262K   25337.16668980 -.02164389  00000+0 -27949-1 0  9994", "line2": "2 66465  42.9997 127.1732 0001516 275.8813 186.3260 15.61258573  4103"}}, "geometry": {"type": "Point", "coordinates": [42.378788857544805, -42.77090939202136]}}, {"type": "Feature", "properties": {"norad_id": 66466, "name": "STARLINK-35388", "group": "last-30-days", "lat": -42.584722525074234, "lon": 44.96278108297575, "alt_km": 390.1838924498579, "timestamp": "2025-12-03T10:52:56.221768+00:00", "meta": {"OBJECT_NAME": "STARLINK-35388", "OBJECT_ID": "2025-262L", "EPOCH": "2025-12-03T04:00:01.998720", "MEAN_MOTION": 15.61256444, "ECCENTRICITY": 0.0001382, "INCLINATION": 42.9996, "RA_OF_ASC_NODE": 127.1675, "ARG_OF_PERICENTER": 279.4264, "MEAN_ANOMALY": 184.6981, "EPHEMERIS_TYPE": 0, "CLASSIFICATION_TYPE": "U", "NORAD_CAT_ID": 66466, "ELEMENT_SET_NO": 999, "REV_AT_EPOCH": 410, "BSTAR": -0.02789, "MEAN_MOTION_DOT": -0.02160086, "MEAN_MOTION_DDOT": 0}, "tle": {"line1": "1 66466U 25262L   25337.16668980 -.02160086  00000+0 -27890-1 0  9990", "line2": "2 66466  42.9996 127.1675 0001382 279.4264 184.6981 15.61256444  4106"}}, "geometry": {"type": "Point", "coordinates": [44.96278108297575, -42.584722525074234]}}, {"type": "Feature", "properties": {"norad_id": 66467, "name": "STARLINK-35682", "group": "last-30-days", "lat": -42.8983611676877, "lon": 39.77747330409167, "alt_km": 390.0415582828746, "timestamp": "2025-12-03T10:52:56.221779+00:00", "meta": {"OBJECT_NAME": "STARLINK-35682", "OBJECT_ID": "2025-262M", "EPOCH": "2025-12-03T04:00:01.998720", "MEAN_MOTION": 15.6126059, "ECCENTRICITY": 0.0001604, "INCLINATION": 42.9996, "RA_OF_ASC_NODE": 127.1781, "ARG_OF_PERICENTER": 274.9512, "MEAN_ANOMALY": 185.3367, "EPHEMERIS_TYPE": 0, "CLASSIFICATION_TYPE": "U", "NORAD_CAT_ID": 66467, "ELEMENT_SET_NO": 999, "REV_AT_EPOCH": 410, "BSTAR": -0.027975, "MEAN_MOTION_DOT": -0.02166444, "MEAN_MOTION_DDOT": 0}, "tle": {"line1": "1 66467U 25262M   25337.16668980 -.02166444  00000+0 -27975-1 0  9999", "line2": "2 66467  42.9996 127.1781 0001604 274.9512 185.3367 15.61260590  4101"}}, "geometry": {"type": "Point", "coordinates": [39.77747330409167, -42.8983611676877]}}]}